NORAD_CAT_ID,OBJECT_NAME,OBJECT_TYPE,EPOCH,MEAN_MOTION,ECCENTRICITY,INCLINATION,RA_OF_ASC_NODE,ARG_OF_PERICENTER,MEAN_ANOMALY,BSTAR,MEAN_MOTION_DOT,MEAN_MOTION_DDOT,TLE_LINE0,TLE_LINE1,TLE_LINE2,SEMIMAJOR_AXIS,PERIOD,APOGEE,PERIGEE,DECAYED
54159.0,STARLINK-5294,PAYLOAD,2024-07-11 01:09:16,15.08833399,0.0001269,53.2156,217.5402,78.4227,281.6908,0.00010646,1.407e-05,0.0,0 STARLINK-5294,1 54159U 22141C   24193.04810890  .00001407  00000-0  10646-3 0  9995,2 54159  53.2156 217.5402 0001269  78.4227 281.6908 15.08833399 94137,6917.901,95.438,540.643,538.888,0.0
54159.0,STARLINK-5294,PAYLOAD,2024-07-11 10:41:35,15.08839522,0.0001276,53.2155,215.7562,83.2596,276.8542,0.00011292,1.51e-05,0.0,0 STARLINK-5294,1 54159U 22141C   24193.44554639  .00001510  00000-0  11292-3 0  9998,2 54159  53.2155 215.7562 0001276  83.2596 276.8542 15.08839522 94194,6917.882,95.438,540.63,538.864,0.0
54159.0,STARLINK-5294,PAYLOAD,2024-07-11 18:38:30,15.08843046,0.0001261,53.2155,214.2695,88.4121,271.7016,0.00013769,1.904e-05,0.0,0 STARLINK-5294,1 54159U 22141C   24193.77674353  .00001904  00000-0  13769-3 0  9998,2 54159  53.2155 214.2695 0001261  88.4121 271.7016 15.08843046 94242,6917.871,95.437,540.608,538.864,0.0
54159.0,STARLINK-5294,PAYLOAD,2024-07-12 10:32:22,15.08844482,0.0001289,53.2146,211.2954,89.037,271.077,0.00018418,2.645e-05,0.0,0 STARLINK-5294,1 54159U 22141C   24194.43914389  .00002645  00000-0  18418-3 0  9997,2 54159  53.2146 211.2954 0001289  89.0370 271.0770 15.08844482 94346,6917.867,95.437,540.623,538.84,0.0
54159.0,STARLINK-5294,PAYLOAD,2024-07-12 18:29:17,15.08846298,0.0001302,53.2147,209.8088,88.6249,271.4892,0.00017455,2.492e-05,0.0,0 STARLINK-5294,1 54159U 22141C   24194.77034276  .00002492  00000-0  17455-3 0  9992,2 54159  53.2147 209.8088 0001302  88.6249 271.4892 15.08846298 94395,6917.861,95.437,540.627,538.825,0.0
54159.0,STARLINK-5294,PAYLOAD,2024-07-13 00:50:50,15.08843119,0.0001353,53.2149,208.6202,88.0794,272.0353,9.4387e-05,1.215e-05,0.0,0 STARLINK-5294,1 54159U 22141C   24195.03530439  .00001215  00000-0  94387-4 0  9996,2 54159  53.2149 208.6202 0001353  88.0794 272.0353 15.08843119 94430,6917.871,95.437,540.672,538.8,0.0
54159.0,STARLINK-5294,PAYLOAD,2024-07-13 07:12:22,15.08840977,0.0001332,53.2148,207.4302,90.1331,269.9814,5.2408e-05,5.46e-06,0.0,0 STARLINK-5294,1 54159U 22141C   24195.30026537  .00000546  00000-0  52408-4 0  9999,2 54159  53.2148 207.4302 0001332  90.1331 269.9814 15.08840977 94475,6917.877,95.437,540.664,538.821,0.0
54159.0,STARLINK-5294,PAYLOAD,2024-07-13 18:20:04,15.08846029,0.0001312,53.2156,205.3489,90.7976,269.3167,6.811e-05,7.96e-06,0.0,0 STARLINK-5294,1 54159U 22141C   24195.76394307  .00000796  00000-0  68110-4 0  9996,2 54159  53.2156 205.3489 0001312  90.7976 269.3167 15.08846029 94543,6917.862,95.437,540.635,538.819,0.0
54159.0,STARLINK-5294,PAYLOAD,2024-07-14 03:52:23,15.08844793,0.0001317,53.2157,203.5646,91.4201,268.6942,8.533e-05,1.071e-05,0.0,0 STARLINK-5294,1 54159U 22141C   24196.16138297  .00001071  00000-0  85330-4 0  9995,2 54159  53.2157 203.5646 0001317  91.4201 268.6942 15.08844793 94609,6917.866,95.437,540.642,538.82,0.0
54159.0,STARLINK-5294,PAYLOAD,2024-07-14 07:03:09,15.08845172,0.0001313,53.2157,202.9698,91.6485,268.4658,8.4363e-05,1.055e-05,0.0,0 STARLINK-5294,1 54159U 22141C   24196.29386225  .00001055  00000-0  84363-4 0  9992,2 54159  53.2157 202.9698 0001313  91.6485 268.4658 15.08845172 94627,6917.865,95.437,540.638,538.821,0.0
54159.0,STARLINK-5294,PAYLOAD,2024-07-15 03:43:10,15.08839908,0.0001308,53.2156,199.1033,94.5547,265.5595,8.7428e-05,1.104e-05,0.0,0 STARLINK-5294,1 54159U 22141C   24197.15498482  .00001104  00000-0  87428-4 0  9997,2 54159  53.2156 199.1033 0001308  94.5547 265.5595 15.08839908 94753,6917.881,95.438,540.651,538.841,0.0
54159.0,STARLINK-5294,PAYLOAD,2024-07-15 10:04:43,15.08837815,0.0001296,53.2159,197.9137,94.8234,265.2906,4.2361e-05,3.86e-06,0.0,0 STARLINK-5294,1 54159U 22141C   24197.41994686  .00000386  00000-0  42361-4 0  9991,2 54159  53.2159 197.9137 0001296  94.8234 265.2906 15.08837815 94791,6917.887,95.438,540.649,538.856,0.0
54159.0,STARLINK-5294,PAYLOAD,2024-07-16 05:09:21,15.08838021,0.000128,53.2158,194.3451,94.1184,265.9955,3.4314e-05,2.58e-06,0.0,0 STARLINK-5294,1 54159U 22141C   24198.21482731  .00000258  00000-0  34314-4 0  9990,2 54159  53.2158 194.3451 0001280  94.1184 265.9955 15.08838021 94915,6917.886,95.438,540.637,538.866,0.0
54159.0,STARLINK-5294,PAYLOAD,2024-07-16 06:44:44,15.08839078,0.0001262,53.2158,194.0481,92.9464,267.1673,4.1945e-05,3.8e-06,0.0,0 STARLINK-5294,1 54159U 22141C   24198.28106644  .00000380  00000-0  41945-4 0  9997,2 54159  53.2158 194.0481 0001262  92.9464 267.1673 15.08839078 94927,6917.883,95.438,540.621,538.875,0.0
54159.0,STARLINK-5294,PAYLOAD,2024-07-17 08:10:54,15.08833296,0.0001288,53.2161,189.2907,93.3515,266.7624,4.6243e-05,4.48e-06,0.0,0 STARLINK-5294,1 54159U 22141C   24199.34091269  .00000448  00000-0  46243-4 0  9992,2 54159  53.2161 189.2907 0001288  93.3515 266.7624 15.08833296 95085,6917.901,95.438,540.657,538.875,0.0
54159.0,STARLINK-5294,PAYLOAD,2024-07-18 06:26:19,15.08835362,0.0001312,53.2162,185.1276,91.6173,268.497,4.9663e-05,5.02e-06,0.0,0 STARLINK-5294,1 54159U 22141C   24200.26827612  .00000502  00000-0  49663-4 0  9995,2 54159  53.2162 185.1276 0001312  91.6173 268.4970 15.08835362 95224,6917.895,95.438,540.667,538.852,0.0
54159.0,STARLINK-5294,PAYLOAD,2024-07-18 15:58:37,15.08842642,0.000131,53.2164,183.3431,88.6901,271.4241,0.00010435,1.373e-05,0.0,0 STARLINK-5294,1 54159U 22141C   24200.66571088  .00001373  00000-0  10435-3 0  9993,2 54159  53.2164 183.3431 0001310  88.6901 271.4241 15.08842642 95282,6917.872,95.437,540.644,538.831,0.0
54159.0,STARLINK-5294,PAYLOAD,2024-07-19 04:41:42,15.08838116,0.0001402,53.2167,180.9651,87.6866,272.4286,0.00010764,1.425e-05,0.0,0 STARLINK-5294,1 54159U 22141C   24201.19563527  .00001425  00000-0  10764-3 0  9994,2 54159  53.2167 180.9651 0001402  87.6866 272.4286 15.08838116 95363,6917.886,95.438,540.721,538.781,0.0
54159.0,STARLINK-5294,PAYLOAD,2024-07-19 07:52:28,15.08843682,0.0001447,53.217,180.3709,88.2827,271.8331,0.00015893,2.243e-05,0.0,0 STARLINK-5294,1 54159U 22141C   24201.32811093  .00002243  00000-0  15893-3 0  9990,2 54159  53.2170 180.3709 0001447  88.2827 271.8331 15.08843682 95388,6917.869,95.437,540.735,538.733,0.0
54159.0,STARLINK-5294,PAYLOAD,2024-07-19 15:49:23,15.08872235,0.0001484,53.2173,178.8805,68.8908,291.2243,-0.00014523,-2.601e-05,0.0,0 STARLINK-5294,1 54159U 22141C   24201.65929624 -.00002601  00000-0 -14523-3 0  9995,2 54159  53.2173 178.8805 0001484  68.8908 291.2243 15.08872235 95435,6917.782,95.436,540.673,538.62,0.0
54159.0,STARLINK-5294,PAYLOAD,2024-07-20 04:32:29,15.08843711,0.0001343,53.2162,176.5015,106.5321,253.5819,0.0001201,1.624e-05,0.0,0 STARLINK-5294,1 54159U 22141C   24202.18922895  .00001624  00000-0  12010-3 0  9998,2 54159  53.2162 176.5015 0001343 106.5321 253.5819 15.08843711 95510,6917.869,95.437,540.663,538.805,0.0
54159.0,STARLINK-5294,PAYLOAD,2024-07-20 06:07:52,15.08840889,0.0001547,53.2173,176.206,83.9958,276.1211,9.4115e-05,1.21e-05,0.0,0 STARLINK-5294,1 54159U 22141C   24202.25547320  .00001210  00000-0  94115-4 0  9990,2 54159  53.2173 176.2060 0001547  83.9958 276.1211 15.08840889 95520,6917.878,95.437,540.813,538.672,0.0
54159.0,STARLINK-5294,PAYLOAD,2024-07-20 15:40:11,15.08850641,0.000153,53.2172,174.4234,83.7604,276.3563,0.00012519,1.706e-05,0.0,0 STARLINK-5294,1 54159U 22141C   24202.65290584  .00001706  00000-0  12519-3 0  9998,2 54159  53.2172 174.4234 0001530  83.7604 276.3563 15.08850641 95585,6917.848,95.437,540.771,538.654,0.0
54159.0,STARLINK-5294,PAYLOAD,2024-07-21 04:23:16,15.088417,0.0001586,53.2184,172.0383,102.1832,257.9338,4.2528e-06,-2.2e-06,0.0,0 STARLINK-5294,1 54159U 22141C   24203.18283322 -.00000220  00000-0  42528-5 0  9995,2 54159  53.2184 172.0383 0001586 102.1832 257.9338 15.08841700 95667,6917.875,95.437,540.837,538.643,0.0
54159.0,STARLINK-5294,PAYLOAD,2024-07-21 07:34:02,15.08846431,0.0001561,53.219,171.4405,109.3269,250.7892,3.1271e-05,2.1e-06,0.0,0 STARLINK-5294,1 54159U 22141C   24203.31530852  .00000210  00000-0  31271-4 0  9993,2 54159  53.2190 171.4405 0001561 109.3269 250.7892 15.08846431 95682,6917.861,95.437,540.806,538.646,0.0
54159.0,STARLINK-5294,PAYLOAD,2024-07-22 04:14:03,15.08837686,0.0001241,53.2173,167.5751,102.8089,257.3042,-1.5227e-05,-5.3e-06,0.0,0 STARLINK-5294,1 54159U 22141C   24204.17643422 -.00000530  00000-0 -15227-4 0  9996,2 54159  53.2173 167.5751 0001241 102.8089 257.3042 15.08837686 95813,6917.887,95.438,540.611,538.894,0.0
54159.0,STARLINK-5294,PAYLOAD,2024-07-22 21:43:18,15.088349,0.0001161,53.2165,164.3113,96.6513,263.4611,8.0522e-05,9.94e-06,0.0,0 STARLINK-5294,1 54159U 22141C   24204.90507561  .00000994  00000-0  80522-4 0  9992,2 54159  53.2165 164.3113 0001161  96.6513 263.4611 15.08834900 95922,6917.896,95.438,540.564,538.958,0.0
54159.0,STARLINK-5294,PAYLOAD,2024-07-23 04:04:51,15.0881615,0.0001255,53.2167,163.1224,87.9983,272.1153,0.00047806,7.324e-05,0.0,0 STARLINK-5294,1 54159U 22141C   24205.17003586  .00007324  00000-0  47806-3 0  9991,2 54159  53.2167 163.1224 0001255  87.9983 272.1153 15.08816150 95961,6917.953,95.439,540.686,538.95,0.0
54159.0,STARLINK-5294,PAYLOAD,2024-07-23 21:34:05,15.08832679,0.0001257,53.2172,159.853,102.5407,257.5726,9.916e-05,1.29e-05,0.0,0 STARLINK-5294,1 54159U 22141C   24205.89867876  .00001290  00000-0  99160-4 0  9997,2 54159  53.2172 159.8530 0001257 102.5407 257.5726 15.08832679 96076,6917.903,95.438,540.637,538.898,0.0
54159.0,STARLINK-5294,PAYLOAD,2024-07-24 03:55:38,15.08827097,0.0001258,53.2168,158.6605,109.9871,250.1257,4.3356e-05,4.02e-06,0.0,0 STARLINK-5294,1 54159U 22141C   24206.16364460  .00000402  00000-0  43356-4 0  9999,2 54159  53.2168 158.6605 0001258 109.9871 250.1257 15.08827097 96119,6917.92,95.438,540.655,538.915,0.0
